METOP-C                 
1 43689U 18087A   26159.12883968  .00000102  00000+0  66666-4 0  9998
2 43689  98.6646 218.8977 0001422 139.5747 220.5536 14.21509778393549
GEO-KOMPSAT-2A          
1 43823U 18100A   26159.17961502 -.00000328  00000+0  00000+0 0  9996
2 43823   0.0496 133.7231 0002330 310.3366   5.4409  1.00270998 27536
METEOR-M2 2             
1 44387U 19038A   26159.18291161 -.00000247  00000+0 -87183-4 0  9994
2 44387  98.9147 146.3358 0002309  61.5914 298.5497 14.24362375360017
ARKTIKA-M 1             
1 47719U 21016A   26153.03917935 -.00000200  00000+0  00000+0 0  9993
2 47719  63.2379  59.8266 7283239 269.8643  14.6915  2.00628509 38489
FENGYUN 3E              
1 49008U 21062A   26159.18192604 -.00000063  00000+0 -88176-5 0  9991
2 49008  98.7497 162.6906 0002741 100.7056 259.4429 14.19903505255307
GOES 18                 
1 51850U 22021A   26159.10272078  .00000112  00000+0  00000+0 0  9998
2 51850   0.0310 151.8940 0000603 348.7076  15.8793  1.00272412  6500
NOAA 21 (JPSS-2)        
1 54234U 22150A   26159.15327826  .00000070  00000+0  53966-4 0  9994
2 54234  98.7058  98.0942 0001131 175.9820 184.1365 14.19563920185267
METEOSAT-12 (MTG-I1)    
1 54743U 22170C   26159.12973264  .00000007  00000+0  00000+0 0  9997
2 54743   0.7276  21.3846 0003422  71.0120 210.4054  1.00271614 12880
TIANMU-1 03             
1 55973U 23039A   26159.18945282  .00013368  00000+0  26624-3 0  9991
2 55973  97.5239 332.8086 0004104 121.3153 238.8498 15.47028533179446
TIANMU-1 04             
1 55974U 23039B   26159.18237958  .00013845  00000+0  27010-3 0  9996
2 55974  97.5175 331.9544 0004720 118.4497 241.7228 15.47616995179457
TIANMU-1 05             
1 55975U 23039C   26159.16978772  .00013923  00000+0  27791-3 0  9994
2 55975  97.5218 332.4067 0003792 135.9564 224.1987 15.46954526179427
TIANMU-1 06             
1 55976U 23039D   26159.18520928  .00013671  00000+0  26761-3 0  9999
2 55976  97.5228 333.0492 0004016 132.7232 227.4356 15.47524318179457
